UNKNOWN                 
1 81052U          25294.05980569  .00007959  00000+0  21562-2 0  9997
2 81052  65.7707 162.3734 0564472 333.1851  24.1021 13.82049986593038
UNKNOWN                 
1 81069U          25298.95684806  .00004017  00000+0  53779-2 0  9990
2 81069 100.3796 197.2015 0060676 162.1489 198.1798 13.60043764509431
UNKNOWN                 
1 81078U          25298.54695509 -.00000206  00000+0 -49508-2 0  9990
2 81078  65.1146 335.4290 0172020  12.8631 141.3726 11.22440022489214
UNKNOWN                 
1 81111U          25300.60143445  .00013922  00000+0  29570-2 0  9990
2 81111  62.8830  62.5320 3869705 355.4501   1.8894  7.53827420268464
UNKNOWN                 
1 81134U          25300.58784205  .00000034  00000+0  98813-4 0  9995
2 81134  90.2529   2.9861 0027416 149.0221 211.2521 12.92956385456640
UNKNOWN                 
1 81161U          25299.99446030  .00001758  00000+0  18543-2 0  9992
2 81161 100.4207 137.7304 0064089  40.0366 320.5479 13.75422410549708
UNKNOWN                 
1 81219U          25297.53686741  .00000691  00000+0  63138-3 0  9995
2 81219  82.9280  43.0925 0020442 356.6186   3.4833 13.81729544600722
UNKNOWN                 
1 81228U          25298.96602560  .00006324  00000+0  19748-2 0  9996
2 81228  70.5243  23.8548 0061143  73.4230 287.3606 14.40072507619219
UNKNOWN                 
1 81254U          25300.61878692  .00003653  00000+0  24127-2 0  9991
2 81254 100.3901 356.4085 0075008 192.5825 167.3464 14.01057686606437
UNKNOWN                 
1 81279U          25300.61817081  .00002072  00000+0  80194-3 0  9994
2 81279  98.1348   3.7424 0208631 159.9815 200.9702 14.19769486456055
UNKNOWN                 
1 81301U          25297.76006821  .00000402  00000+0  46909-3 0  9994
2 81301  66.7597  52.8527 0095876 263.1311 248.0276 13.76662174599618
UNKNOWN                 
1 81311U          25296.11517053  .00000968  00000+0  20628-3 0  9994
2 81311  98.7398 350.9826 0130537 279.3738 108.2691 14.56411293632229
