CCSDS_OMM_VERS = 2.0
CREATION_DATE  = 
ORIGINATOR     = 

OBJECT_NAME    = UNKNOWN
OBJECT_ID      = 
CENTER_NAME    = EARTH
REF_FRAME      = TEME
TIME_SYSTEM    = UTC
MEAN_ELEMENT_THEORY = SGP/SGP4

EPOCH          = 2025-10-21T01:26:07.211616
MEAN_MOTION    = 13.82049986
ECCENTRICITY   = .0564472
INCLINATION    = 65.7707
RA_OF_ASC_NODE = 162.3734
ARG_OF_PERICENTER = 333.1851
MEAN_ANOMALY   = 24.1021

EPHEMERIS_TYPE = 0
CLASSIFICATION_TYPE = U
NORAD_CAT_ID   = 81052
ELEMENT_SET_NO = 999
REV_AT_EPOCH   = 59303
BSTAR          = .21562E-2
MEAN_MOTION_DOT = .7959E-4
MEAN_MOTION_DDOT = 0

CCSDS_OMM_VERS = 2.0
CREATION_DATE  = 
ORIGINATOR     = 

OBJECT_NAME    = UNKNOWN
OBJECT_ID      = 
CENTER_NAME    = EARTH
REF_FRAME      = TEME
TIME_SYSTEM    = UTC
MEAN_ELEMENT_THEORY = SGP/SGP4

EPOCH          = 2025-10-25T22:57:51.672384
MEAN_MOTION    = 13.60043764
ECCENTRICITY   = .0060676
INCLINATION    = 100.3796
RA_OF_ASC_NODE = 197.2015
ARG_OF_PERICENTER = 162.1489
MEAN_ANOMALY   = 198.1798

EPHEMERIS_TYPE = 0
CLASSIFICATION_TYPE = U
NORAD_CAT_ID   = 81069
ELEMENT_SET_NO = 999
REV_AT_EPOCH   = 50943
BSTAR          = .53779E-2
MEAN_MOTION_DOT = .4017E-4
MEAN_MOTION_DDOT = 0

CCSDS_OMM_VERS = 2.0
CREATION_DATE  = 
ORIGINATOR     = 

OBJECT_NAME    = UNKNOWN
OBJECT_ID      = 
CENTER_NAME    = EARTH
REF_FRAME      = TEME
TIME_SYSTEM    = UTC
MEAN_ELEMENT_THEORY = SGP/SGP4

EPOCH          = 2025-10-25T13:07:36.919776
MEAN_MOTION    = 11.22440022
ECCENTRICITY   = .017202
INCLINATION    = 65.1146
RA_OF_ASC_NODE = 335.4290
ARG_OF_PERICENTER = 12.8631
MEAN_ANOMALY   = 141.3726

EPHEMERIS_TYPE = 0
CLASSIFICATION_TYPE = U
NORAD_CAT_ID   = 81078
ELEMENT_SET_NO = 999
REV_AT_EPOCH   = 48921
BSTAR          = -.49508E-2
MEAN_MOTION_DOT = -.206E-5
MEAN_MOTION_DDOT = 0

CCSDS_OMM_VERS = 2.0
CREATION_DATE  = 
ORIGINATOR     = 

OBJECT_NAME    = UNKNOWN
OBJECT_ID      = 
CENTER_NAME    = EARTH
REF_FRAME      = TEME
TIME_SYSTEM    = UTC
MEAN_ELEMENT_THEORY = SGP/SGP4

EPOCH          = 2025-10-27T14:26:03.936480
MEAN_MOTION    = 7.53827420
ECCENTRICITY   = .3869705
INCLINATION    = 62.8830
RA_OF_ASC_NODE = 62.5320
ARG_OF_PERICENTER = 355.4501
MEAN_ANOMALY   = 1.8894

EPHEMERIS_TYPE = 0
CLASSIFICATION_TYPE = U
NORAD_CAT_ID   = 81111
ELEMENT_SET_NO = 999
REV_AT_EPOCH   = 26846
BSTAR          = .2957E-2
MEAN_MOTION_DOT = .13922E-3
MEAN_MOTION_DDOT = 0

CCSDS_OMM_VERS = 2.0
CREATION_DATE  = 
ORIGINATOR     = 

OBJECT_NAME    = UNKNOWN
OBJECT_ID      = 
CENTER_NAME    = EARTH
REF_FRAME      = TEME
TIME_SYSTEM    = UTC
MEAN_ELEMENT_THEORY = SGP/SGP4

EPOCH          = 2025-10-27T14:06:29.553120
MEAN_MOTION    = 12.92956385
ECCENTRICITY   = .0027416
INCLINATION    = 90.2529
RA_OF_ASC_NODE = 2.9861
ARG_OF_PERICENTER = 149.0221
MEAN_ANOMALY   = 211.2521

EPHEMERIS_TYPE = 0
CLASSIFICATION_TYPE = U
NORAD_CAT_ID   = 81134
ELEMENT_SET_NO = 999
REV_AT_EPOCH   = 45664
BSTAR          = .98813E-4
MEAN_MOTION_DOT = .34E-6
MEAN_MOTION_DDOT = 0

CCSDS_OMM_VERS = 2.0
CREATION_DATE  = 
ORIGINATOR     = 

OBJECT_NAME    = UNKNOWN
OBJECT_ID      = 
CENTER_NAME    = EARTH
REF_FRAME      = TEME
TIME_SYSTEM    = UTC
MEAN_ELEMENT_THEORY = SGP/SGP4

EPOCH          = 2025-10-26T23:52:01.369920
MEAN_MOTION    = 13.75422410
ECCENTRICITY   = .0064089
INCLINATION    = 100.4207
RA_OF_ASC_NODE = 137.7304
ARG_OF_PERICENTER = 40.0366
MEAN_ANOMALY   = 320.5479

EPHEMERIS_TYPE = 0
CLASSIFICATION_TYPE = U
NORAD_CAT_ID   = 81161
ELEMENT_SET_NO = 999
REV_AT_EPOCH   = 54970
BSTAR          = .18543E-2
MEAN_MOTION_DOT = .1758E-4
MEAN_MOTION_DDOT = 0

CCSDS_OMM_VERS = 2.0
CREATION_DATE  = 
ORIGINATOR     = 

OBJECT_NAME    = UNKNOWN
OBJECT_ID      = 
CENTER_NAME    = EARTH
REF_FRAME      = TEME
TIME_SYSTEM    = UTC
MEAN_ELEMENT_THEORY = SGP/SGP4

EPOCH          = 2025-10-24T12:53:05.344224
MEAN_MOTION    = 13.81729544
ECCENTRICITY   = .0020442
INCLINATION    = 82.9280
RA_OF_ASC_NODE = 43.0925
ARG_OF_PERICENTER = 356.6186
MEAN_ANOMALY   = 3.4833

EPHEMERIS_TYPE = 0
CLASSIFICATION_TYPE = U
NORAD_CAT_ID   = 81219
ELEMENT_SET_NO = 999
REV_AT_EPOCH   = 60072
BSTAR          = .63138E-3
MEAN_MOTION_DOT = .691E-5
MEAN_MOTION_DDOT = 0

CCSDS_OMM_VERS = 2.0
CREATION_DATE  = 
ORIGINATOR     = 

OBJECT_NAME    = UNKNOWN
OBJECT_ID      = 
CENTER_NAME    = EARTH
REF_FRAME      = TEME
TIME_SYSTEM    = UTC
MEAN_ELEMENT_THEORY = SGP/SGP4

EPOCH          = 2025-10-25T23:11:04.611840
MEAN_MOTION    = 14.40072507
ECCENTRICITY   = .0061143
INCLINATION    = 70.5243
RA_OF_ASC_NODE = 23.8548
ARG_OF_PERICENTER = 73.4230
MEAN_ANOMALY   = 287.3606

EPHEMERIS_TYPE = 0
CLASSIFICATION_TYPE = U
NORAD_CAT_ID   = 81228
ELEMENT_SET_NO = 999
REV_AT_EPOCH   = 61921
BSTAR          = .19748E-2
MEAN_MOTION_DOT = .6324E-4
MEAN_MOTION_DDOT = 0

CCSDS_OMM_VERS = 2.0
CREATION_DATE  = 
ORIGINATOR     = 

OBJECT_NAME    = UNKNOWN
OBJECT_ID      = 
CENTER_NAME    = EARTH
REF_FRAME      = TEME
TIME_SYSTEM    = UTC
MEAN_ELEMENT_THEORY = SGP/SGP4

EPOCH          = 2025-10-27T14:51:03.189888
MEAN_MOTION    = 14.01057686
ECCENTRICITY   = .0075008
INCLINATION    = 100.3901
RA_OF_ASC_NODE = 356.4085
ARG_OF_PERICENTER = 192.5825
MEAN_ANOMALY   = 167.3464

EPHEMERIS_TYPE = 0
CLASSIFICATION_TYPE = U
NORAD_CAT_ID   = 81254
ELEMENT_SET_NO = 999
REV_AT_EPOCH   = 60643
BSTAR          = .24127E-2
MEAN_MOTION_DOT = .3653E-4
MEAN_MOTION_DDOT = 0

CCSDS_OMM_VERS = 2.0
CREATION_DATE  = 
ORIGINATOR     = 

OBJECT_NAME    = UNKNOWN
OBJECT_ID      = 
CENTER_NAME    = EARTH
REF_FRAME      = TEME
TIME_SYSTEM    = UTC
MEAN_ELEMENT_THEORY = SGP/SGP4

EPOCH          = 2025-10-27T14:50:09.957984
MEAN_MOTION    = 14.19769486
ECCENTRICITY   = .0208631
INCLINATION    = 98.1348
RA_OF_ASC_NODE = 3.7424
ARG_OF_PERICENTER = 159.9815
MEAN_ANOMALY   = 200.9702

EPHEMERIS_TYPE = 0
CLASSIFICATION_TYPE = U
NORAD_CAT_ID   = 81279
ELEMENT_SET_NO = 999
REV_AT_EPOCH   = 45605
BSTAR          = .80194E-3
MEAN_MOTION_DOT = .2072E-4
MEAN_MOTION_DDOT = 0

CCSDS_OMM_VERS = 2.0
CREATION_DATE  = 
ORIGINATOR     = 

OBJECT_NAME    = UNKNOWN
OBJECT_ID      = 
CENTER_NAME    = EARTH
REF_FRAME      = TEME
TIME_SYSTEM    = UTC
MEAN_ELEMENT_THEORY = SGP/SGP4

EPOCH          = 2025-10-24T18:14:29.893344
MEAN_MOTION    = 13.76662174
ECCENTRICITY   = .0095876
INCLINATION    = 66.7597
RA_OF_ASC_NODE = 52.8527
ARG_OF_PERICENTER = 263.1311
MEAN_ANOMALY   = 248.0276

EPHEMERIS_TYPE = 0
CLASSIFICATION_TYPE = U
NORAD_CAT_ID   = 81301
ELEMENT_SET_NO = 999
REV_AT_EPOCH   = 59961
BSTAR          = .46909E-3
MEAN_MOTION_DOT = .402E-5
MEAN_MOTION_DDOT = 0

CCSDS_OMM_VERS = 2.0
CREATION_DATE  = 
ORIGINATOR     = 

OBJECT_NAME    = UNKNOWN
OBJECT_ID      = 
CENTER_NAME    = EARTH
REF_FRAME      = TEME
TIME_SYSTEM    = UTC
MEAN_ELEMENT_THEORY = SGP/SGP4

EPOCH          = 2025-10-23T02:45:50.733792
MEAN_MOTION    = 14.56411293
ECCENTRICITY   = .0130537
INCLINATION    = 98.7398
RA_OF_ASC_NODE = 350.9826
ARG_OF_PERICENTER = 279.3738
MEAN_ANOMALY   = 108.2691

EPHEMERIS_TYPE = 0
CLASSIFICATION_TYPE = U
NORAD_CAT_ID   = 81311
ELEMENT_SET_NO = 999
REV_AT_EPOCH   = 63222
BSTAR          = .20628E-3
MEAN_MOTION_DOT = .968E-5
MEAN_MOTION_DDOT = 0

